{
  "type": "FeatureCollection",
  "features": [
    {
      "type": "Feature",
      "properties": {
        "norad_id": 40362,
        "name": "YAOGAN-26",
        "group": "resource",
        "lat": -51.67519877869831,
        "lon": -13.476736164806162,
        "alt_km": 458.50945510191286,
        "timestamp": "2025-12-02T10:50:46.930435+00:00",
        "meta_object_name": "YAOGAN-26",
        "meta_object_id": "2014-088A",
        "meta_epoch": "2025-12-02T04:49:47.959392",
        "meta_mean_motion": 15.38729072,
        "meta_eccentricity": 0.0007425,
        "meta_inclination": 97.0642,
        "meta_ra_of_asc_node": 337.2556,
        "meta_arg_of_pericenter": 57.9149,
        "meta_mean_anomaly": 302.2817,
        "meta_ephemeris_type": 0,
        "meta_classification_type": "U",
        "meta_norad_cat_id": 40362,
        "meta_element_set_no": 999,
        "meta_rev_at_epoch": 60732,
        "meta_bstar": 0.000562,
        "meta_mean_motion_dot": 0.00021485,
        "meta_mean_motion_ddot": 0,
        "tle_line1": "1 40362U 14088A   25336.20124953  .00021485  00000+0  56200-3 0  9996",
        "tle_line2": "2 40362  97.0642 337.2556 0007425  57.9149 302.2817 15.38729072607324"
      },
      "geometry": {
        "type": "Point",
        "coordinates": [
          -13.476736164806162,
          -51.67519877869831
        ]
      }
    },
    {
      "type": "Feature",
      "properties": {
        "norad_id": 40376,
        "name": "SMAP",
        "group": "resource",
        "lat": 63.78792218349734,
        "lon": 178.201847062258,
        "alt_km": 675.2865069131321,
        "timestamp": "2025-12-02T10:50:46.930446+00:00",
        "meta_object_name": "SMAP",
        "meta_object_id": "2015-003A",
        "meta_epoch": "2025-12-02T03:45:31.694112",
        "meta_mean_motion": 14.63353768,
        "meta_eccentricity": 0.0001338,
        "meta_inclination": 98.1292,
        "meta_ra_of_asc_node": 341.0331,
        "meta_arg_of_pericenter": 90.148,
        "meta_mean_anomaly": 269.9875,
        "meta_ephemeris_type": 0,
        "meta_classification_type": "U",
        "meta_norad_cat_id": 40376,
        "meta_element_set_no": 999,
        "meta_rev_at_epoch": 57880,
        "meta_bstar": 0.00014155,
        "meta_mean_motion_dot": 6.84e-06,
        "meta_mean_motion_ddot": 0,
        "tle_line1": "1 40376U 15003A   25336.15661683  .00000684  00000+0  14155-3 0  9990",
        "tle_line2": "2 40376  98.1292 341.0331 0001338  90.1480 269.9875 14.63353768578805"
      },
      "geometry": {
        "type": "Point",
        "coordinates": [
          178.201847062258,
          63.78792218349734
        ]
      }
    },
    {
      "type": "Feature",
      "properties": {
        "norad_id": 40536,
        "name": "KOMPSAT-3A",
        "group": "resource",
        "lat": 74.28900270457184,
        "lon": -78.41924482682113,
        "alt_km": 428.33551741382234,
        "timestamp": "2025-12-02T10:50:46.930455+00:00",
        "meta_object_name": "KOMPSAT-3A",
        "meta_object_id": "2015-014A",
        "meta_epoch": "2025-12-02T04:17:34.541664",
        "meta_mean_motion": 15.43362646,
        "meta_eccentricity": 0.0003589,
        "meta_inclination": 97.6769,
        "meta_ra_of_asc_node": 309.948,
        "meta_arg_of_pericenter": 149.5565,
        "meta_mean_anomaly": 210.5891,
        "meta_ephemeris_type": 0,
        "meta_classification_type": "U",
        "meta_norad_cat_id": 40536,
        "meta_element_set_no": 999,
        "meta_rev_at_epoch": 59132,
        "meta_bstar": 0.00051528,
        "meta_mean_motion_dot": 0.00022937,
        "meta_mean_motion_ddot": 0,
        "tle_line1": "1 40536U 15014A   25336.17887201  .00022937  00000+0  51528-3 0  9998",
        "tle_line2": "2 40536  97.6769 309.9480 0003589 149.5565 210.5891 15.43362646591323"
      },
      "geometry": {
        "type": "Point",
        "coordinates": [
          -78.41924482682113,
          74.28900270457184
        ]
      }
    },
    {
      "type": "Feature",
      "properties": {
        "norad_id": 40697,
        "name": "SENTINEL-2A",
        "group": "resource",
        "lat": 72.38894010689759,
        "lon": -102.50382300959856,
        "alt_km": 781.2767824537341,
        "timestamp": "2025-12-02T10:50:46.930466+00:00",
        "meta_object_name": "SENTINEL-2A",
        "meta_object_id": "2015-028A",
        "meta_epoch": "2025-12-02T05:19:14.174976",
        "meta_mean_motion": 14.30820379,
        "meta_eccentricity": 0.0001041,
        "meta_inclination": 98.5706,
        "meta_ra_of_asc_node": 48.9041,
        "meta_arg_of_pericenter": 93.7098,
        "meta_mean_anomaly": 266.4203,
        "meta_ephemeris_type": 0,
        "meta_classification_type": "U",
        "meta_norad_cat_id": 40697,
        "meta_element_set_no": 999,
        "meta_rev_at_epoch": 54556,
        "meta_bstar": 9.0113e-05,
        "meta_mean_motion_dot": 1.93e-06,
        "meta_mean_motion_ddot": 0,
        "tle_line1": "1 40697U 15028A   25336.22169184  .00000193  00000+0  90113-4 0  9994",
        "tle_line2": "2 40697  98.5706  48.9041 0001041  93.7098 266.4203 14.30820379545566"
      },
      "geometry": {
        "type": "Point",
        "coordinates": [
          -102.50382300959856,
          72.38894010689759
        ]
      }
    },
    {
      "type": "Feature",
      "properties": {
        "norad_id": 40701,
        "name": "GAOFEN-8",
        "group": "resource",
        "lat": 40.92724234961447,
        "lon": -19.175951416554764,
        "alt_km": 442.6618618201028,
        "timestamp": "2025-12-02T10:50:46.930477+00:00",
        "meta_object_name": "GAOFEN-8",
        "meta_object_id": "2015-030A",
        "meta_epoch": "2025-12-02T03:59:59.451648",
        "meta_mean_motion": 15.37991602,
        "meta_eccentricity": 0.0011147,
        "meta_inclination": 97.6909,
        "meta_ra_of_asc_node": 153.7962,
        "meta_arg_of_pericenter": 175.4283,
        "meta_mean_anomaly": 184.7065,
        "meta_ephemeris_type": 0,
        "meta_classification_type": "U",
        "meta_norad_cat_id": 40701,
        "meta_element_set_no": 999,
        "meta_rev_at_epoch": 58108,
        "meta_bstar": 0.00062432,
        "meta_mean_motion_dot": 0.00023334,
        "meta_mean_motion_ddot": 0,
        "tle_line1": "1 40701U 15030A   25336.16666032  .00023334  00000+0  62432-3 0  9994",
        "tle_line2": "2 40701  97.6909 153.7962 0011147 175.4283 184.7065 15.37991602581087"
      },
      "geometry": {
        "type": "Point",
        "coordinates": [
          -19.175951416554764,
          40.92724234961447
        ]
      }
    },
    {
      "type": "Feature",
      "properties": {
        "norad_id": 40718,
        "name": "CARBONITE 1 (CBNT-1)",
        "group": "resource",
        "lat": -34.17548415916973,
        "lon": 163.1783694872679,
        "alt_km": 630.3283313607672,
        "timestamp": "2025-12-02T10:50:46.930487+00:00",
        "meta_object_name": "CARBONITE 1 (CBNT-1)",
        "meta_object_id": "2015-032D",
        "meta_epoch": "2025-12-02T04:31:23.509056",
        "meta_mean_motion": 14.82662005,
        "meta_eccentricity": 0.0013764,
        "meta_inclination": 97.6402,
        "meta_ra_of_asc_node": 157.6974,
        "meta_arg_of_pericenter": 217.2604,
        "meta_mean_anomaly": 142.7656,
        "meta_ephemeris_type": 0,
        "meta_classification_type": "U",
        "meta_norad_cat_id": 40718,
        "meta_element_set_no": 999,
        "meta_rev_at_epoch": 56014,
        "meta_bstar": 0.00040175,
        "meta_mean_motion_dot": 3.193e-05,
        "meta_mean_motion_ddot": 0,
        "tle_line1": "1 40718U 15032D   25336.18846654  .00003193  00000+0  40175-3 0  9997",
        "tle_line2": "2 40718  97.6402 157.6974 0013764 217.2604 142.7656 14.82662005560143"
      },
      "geometry": {
        "type": "Point",
        "coordinates": [
          163.1783694872679,
          -34.17548415916973
        ]
      }
    },
    {
      "type": "Feature",
      "properties": {
        "norad_id": 40878,
        "name": "YAOGAN-27",
        "group": "resource",
        "lat": 63.73289828252518,
        "lon": -54.633415421725026,
        "alt_km": 1195.8407700043135,
        "timestamp": "2025-12-02T10:50:46.930498+00:00",
        "meta_object_name": "YAOGAN-27",
        "meta_object_id": "2015-040A",
        "meta_epoch": "2025-12-02T05:02:26.382912",
        "meta_mean_motion": 13.16059608,
        "meta_eccentricity": 0.0007762,
        "meta_inclination": 100.1003,
        "meta_ra_of_asc_node": 326.3067,
        "meta_arg_of_pericenter": 312.6516,
        "meta_mean_anomaly": 47.3943,
        "meta_ephemeris_type": 0,
        "meta_classification_type": "U",
        "meta_norad_cat_id": 40878,
        "meta_element_set_no": 999,
        "meta_rev_at_epoch": 49175,
        "meta_bstar": 6.7735e-05,
        "meta_mean_motion_dot": -1.7e-07,
        "meta_mean_motion_ddot": 0,
        "tle_line1": "1 40878U 15040A   25336.21002758 -.00000017  00000+0  67735-4 0  9991",
        "tle_line2": "2 40878 100.1003 326.3067 0007762 312.6516  47.3943 13.16059608491752"
      },
      "geometry": {
        "type": "Point",
        "coordinates": [
          -54.633415421725026,
          63.73289828252518
        ]
      }
    }
  ]
}